O3B FM7                 
1 40080U 14038B   17345.36349787 -.00000026  00000-0  00000-0 0  9994
2 40080   0.0341   4.3104 0003213 253.7008 101.9539  5.00115404 62419
